[{"OBJECT_NAME":"ONEWEB-0492","OBJECT_ID":"2022-138B","EPOCH":"2025-11-30T14:17:45.827520","MEAN_MOTION":13.19723952,"ECCENTRICITY":0.00019469,"INCLINATION":87.9203,"RA_OF_ASC_NODE":344.4873,"ARG_OF_PERICENTER":84.8414,"MEAN_ANOMALY":275.2941,"EPHEMERIS_TYPE":0,"CLASSIFICATION_TYPE":"U","NORAD_CAT_ID":54114,"ELEMENT_SET_NO":999,"REV_AT_EPOCH":15064,"BSTAR":0.00013102639,"MEAN_MOTION_DOT":6.5e-7,"MEAN_MOTION_DDOT":0},{"OBJECT_NAME":"ONEWEB-0495","OBJECT_ID":"2022-138C","EPOCH":"2025-11-30T10:07:33.485376","MEAN_MOTION":13.19727312,"ECCENTRICITY":0.0002519,"INCLINATION":87.9193,"RA_OF_ASC_NODE":344.5265,"ARG_OF_PERICENTER":88.3409,"MEAN_ANOMALY":271.8012,"EPHEMERIS_TYPE":0,"CLASSIFICATION_TYPE":"U","NORAD_CAT_ID":54115,"ELEMENT_SET_NO":999,"REV_AT_EPOCH":15060,"BSTAR":-4.6937653e-5,"MEAN_MOTION_DOT":-6.0e-8,"MEAN_MOTION_DDOT":0},{"OBJECT_NAME":"ONEWEB-0497","OBJECT_ID":"2022-138D","EPOCH":"2025-11-30T14:04:06.346848","MEAN_MOTION":13.19723222,"ECCENTRICITY":0.00018864,"INCLINATION":87.9201,"RA_OF_ASC_NODE":344.4794,"ARG_OF_PERICENTER":89.8052,"MEAN_ANOMALY":270.3297,"EPHEMERIS_TYPE":0,"CLASSIFICATION_TYPE":"U","NORAD_CAT_ID":54116,"ELEMENT_SET_NO":999,"REV_AT_EPOCH":15061,"BSTAR":0.00028154101,"MEAN_MOTION_DOT":1.26e-6,"MEAN_MOTION_DDOT":0},{"OBJECT_NAME":"ONEWEB-0499","OBJECT_ID":"2022-138E","EPOCH":"2025-11-30T11:51:04.340736","MEAN_MOTION":13.19721029,"ECCENTRICITY":0.00019507,"INCLINATION":87.9201,"RA_OF_ASC_NODE":344.5109,"ARG_OF_PERICENTER":95.7326,"MEAN_ANOMALY":264.4029,"EPHEMERIS_TYPE":0,"CLASSIFICATION_TYPE":"U","NORAD_CAT_ID":54117,"ELEMENT_SET_NO":999,"REV_AT_EPOCH":15061,"BSTAR":0.0017096348,"MEAN_MOTION_DOT":6.97e-6,"MEAN_MOTION_DDOT":0},{"OBJECT_NAME":"ONEWEB-0500","OBJECT_ID":"2022-138F","EPOCH":"2025-11-30T10:05:17.097792","MEAN_MOTION":13.19723463,"ECCENTRICITY":0.00017637,"INCLINATION":87.9203,"RA_OF_ASC_NODE":344.5129,"ARG_OF_PERICENTER":88.4932,"MEAN_ANOMALY":271.6403,"EPHEMERIS_TYPE":0,"CLASSIFICATION_TYPE":"U","NORAD_CAT_ID":54118,"ELEMENT_SET_NO":999,"REV_AT_EPOCH":15061,"BSTAR":-8.814133e-5,"MEAN_MOTION_DOT":-2.2e-7,"MEAN_MOTION_DDOT":0},{"OBJECT_NAME":"ONEWEB-0501","OBJECT_ID":"2022-138G","EPOCH":"2025-11-30T12:37:41.334240","MEAN_MOTION":13.19723029,"ECCENTRICITY":0.00021997,"INCLINATION":87.9213,"RA_OF_ASC_NODE":344.4891,"ARG_OF_PERICENTER":90.7591,"MEAN_ANOMALY":269.3794,"EPHEMERIS_TYPE":0,"CLASSIFICATION_TYPE":"U","NORAD_CAT_ID":54119,"ELEMENT_SET_NO":999,"REV_AT_EPOCH":15060,"BSTAR":0.0002441143,"MEAN_MOTION_DOT":1.11e-6,"MEAN_MOTION_DDOT":0},{"OBJECT_NAME":"ONEWEB-0502","OBJECT_ID":"2022-138H","EPOCH":"2025-11-30T14:06:23.586336","MEAN_MOTION":13.19723764,"ECCENTRICITY":0.00020672,"INCLINATION":87.9208,"RA_OF_ASC_NODE":344.4587,"ARG_OF_PERICENTER":94.4656,"MEAN_ANOMALY":265.6713,"EPHEMERIS_TYPE":0,"CLASSIFICATION_TYPE":"U","NORAD_CAT_ID":54120,"ELEMENT_SET_NO":999,"REV_AT_EPOCH":15063,"BSTAR":0.0001425923,"MEAN_MOTION_DOT":7.0e-7,"MEAN_MOTION_DDOT":0},{"OBJECT_NAME":"ONEWEB-0503","OBJECT_ID":"2022-138J","EPOCH":"2025-11-30T10:12:06.467040","MEAN_MOTION":13.19723152,"ECCENTRICITY":0.00017924,"INCLINATION":87.9209,"RA_OF_ASC_NODE":344.4952,"ARG_OF_PERICENTER":100.3408,"MEAN_ANOMALY":259.7926,"EPHEMERIS_TYPE":0,"CLASSIFICATION_TYPE":"U","NORAD_CAT_ID":54121,"ELEMENT_SET_NO":999,"REV_AT_EPOCH":15060,"BSTAR":-0.00015895078,"MEAN_MOTION_DOT":-5.1e-7,"MEAN_MOTION_DDOT":0},{"OBJECT_NAME":"ONEWEB-0504","OBJECT_ID":"2022-138K","EPOCH":"2025-11-30T11:43:04.789632","MEAN_MOTION":13.19727807,"ECCENTRICITY":0.00020774,"INCLINATION":87.9204,"RA_OF_ASC_NODE":344.4993,"ARG_OF_PERICENTER":95.9664,"MEAN_ANOMALY":264.1706,"EPHEMERIS_TYPE":0,"CLASSIFICATION_TYPE":"U","NORAD_CAT_ID":54122,"ELEMENT_SET_NO":999,"REV_AT_EPOCH":15062,"BSTAR":-9.792685e-5,"MEAN_MOTION_DOT":-2.6e-7,"MEAN_MOTION_DDOT":0},{"OBJECT_NAME":"ONEWEB-0505","OBJECT_ID":"2022-138L","EPOCH":"2025-11-30T11:38:32.502624","MEAN_MOTION":13.19723709,"ECCENTRICITY":0.00023341,"INCLINATION":87.9209,"RA_OF_ASC_NODE":344.4893,"ARG_OF_PERICENTER":93.0641,"MEAN_ANOMALY":267.0759,"EPHEMERIS_TYPE":0,"CLASSIFICATION_TYPE":"U","NORAD_CAT_ID":54123,"ELEMENT_SET_NO":999,"REV_AT_EPOCH":15060,"BSTAR":-0.00011640584,"MEAN_MOTION_DOT":-3.4e-7,"MEAN_MOTION_DDOT":0},{"OBJECT_NAME":"ONEWEB-0506","OBJECT_ID":"2022-138M","EPOCH":"2025-11-30T12:51:19.843776","MEAN_MOTION":13.19724121,"ECCENTRICITY":0.00019674,"INCLINATION":87.9211,"RA_OF_ASC_NODE":344.4762,"ARG_OF_PERICENTER":91.9995,"MEAN_ANOMALY":268.1363,"EPHEMERIS_TYPE":0,"CLASSIFICATION_TYPE":"U","NORAD_CAT_ID":54124,"ELEMENT_SET_NO":999,"REV_AT_EPOCH":15060,"BSTAR":7.4492414e-5,"MEAN_MOTION_DOT":4.3e-7,"MEAN_MOTION_DDOT":0},{"OBJECT_NAME":"ONEWEB-0507","OBJECT_ID":"2022-138N","EPOCH":"2025-11-30T13:20:53.720448","MEAN_MOTION":13.19723588,"ECCENTRICITY":0.00020358,"INCLINATION":87.9189,"RA_OF_ASC_NODE":344.5094,"ARG_OF_PERICENTER":89.7243,"MEAN_ANOMALY":270.4123,"EPHEMERIS_TYPE":0,"CLASSIFICATION_TYPE":"U","NORAD_CAT_ID":54125,"ELEMENT_SET_NO":999,"REV_AT_EPOCH":15065,"BSTAR":2.3234749e-5,"MEAN_MOTION_DOT":2.2e-7,"MEAN_MOTION_DDOT":0},{"OBJECT_NAME":"ONEWEB-0508","OBJECT_ID":"2022-138P","EPOCH":"2025-11-30T13:16:21.486144","MEAN_MOTION":13.19723936,"ECCENTRICITY":0.00021544,"INCLINATION":87.9201,"RA_OF_ASC_NODE":344.5027,"ARG_OF_PERICENTER":87.7504,"MEAN_ANOMALY":272.3876,"EPHEMERIS_TYPE":0,"CLASSIFICATION_TYPE":"U","NORAD_CAT_ID":54126,"ELEMENT_SET_NO":999,"REV_AT_EPOCH":15063,"BSTAR":9.5079847e-5,"MEAN_MOTION_DOT":5.1e-7,"MEAN_MOTION_DDOT":0},{"OBJECT_NAME":"ONEWEB-0509","OBJECT_ID":"2022-138Q","EPOCH":"2025-11-30T14:29:07.425024","MEAN_MOTION":13.19722684,"ECCENTRICITY":0.00019549,"INCLINATION":87.9213,"RA_OF_ASC_NODE":344.4618,"ARG_OF_PERICENTER":90.7514,"MEAN_ANOMALY":269.3843,"EPHEMERIS_TYPE":0,"CLASSIFICATION_TYPE":"U","NORAD_CAT_ID":54127,"ELEMENT_SET_NO":999,"REV_AT_EPOCH":15061,"BSTAR":0.00020542204,"MEAN_MOTION_DOT":9.5e-7,"MEAN_MOTION_DDOT":0},{"OBJECT_NAME":"ONEWEB-0510","OBJECT_ID":"2022-138R","EPOCH":"2025-11-30T10:06:50.497920","MEAN_MOTION":13.20773812,"ECCENTRICITY":0.00012858,"INCLINATION":87.9183,"RA_OF_ASC_NODE":314.076,"ARG_OF_PERICENTER":86.0578,"MEAN_ANOMALY":274.0702,"EPHEMERIS_TYPE":0,"CLASSIFICATION_TYPE":"U","NORAD_CAT_ID":54128,"ELEMENT_SET_NO":999,"REV_AT_EPOCH":15304,"BSTAR":0.00030574001,"MEAN_MOTION_DOT":1.37e-6,"MEAN_MOTION_DDOT":0},{"OBJECT_NAME":"ONEWEB-0511","OBJECT_ID":"2022-138S","EPOCH":"2025-11-30T14:24:35.333280","MEAN_MOTION":13.19723592,"ECCENTRICITY":0.0001873,"INCLINATION":87.9215,"RA_OF_ASC_NODE":344.4657,"ARG_OF_PERICENTER":99.8528,"MEAN_ANOMALY":260.2816,"EPHEMERIS_TYPE":0,"CLASSIFICATION_TYPE":"U","NORAD_CAT_ID":54129,"ELEMENT_SET_NO":999,"REV_AT_EPOCH":15064,"BSTAR":0.00016937247,"MEAN_MOTION_DOT":8.1e-7,"MEAN_MOTION_DDOT":0}]
