ONEWEB-0492             
1 54114U 22138B   25334.59566930  .00000065  00000+0  13103-3 0  9992
2 54114  87.9203 344.4873 0001946  84.8414 275.2941 13.19723952150646
ONEWEB-0495             
1 54115U 22138C   25334.42191534 -.00000006  00000+0 -46938-4 0  9999
2 54115  87.9193 344.5265 0002519  88.3409 271.8012 13.19727312150602
ONEWEB-0497             
1 54116U 22138D   25334.58618457  .00000126  00000+0  28154-3 0  9995
2 54116  87.9201 344.4794 0001886  89.8052 270.3297 13.19723222150611
ONEWEB-0499             
1 54117U 22138E   25334.49380024  .00000697  00000+0  17096-2 0  9997
2 54117  87.9201 344.5109 0001950  95.7326 264.4029 13.19721029150615
ONEWEB-0500             
1 54118U 22138F   25334.42033678 -.00000022  00000+0 -88141-4 0  9996
2 54118  87.9203 344.5129 0001763  88.4932 271.6403 13.19723463150614
ONEWEB-0501             
1 54119U 22138G   25334.52617285  .00000111  00000+0  24411-3 0  9996
2 54119  87.9213 344.4891 0002199  90.7591 269.3794 13.19723029150606
ONEWEB-0502             
1 54120U 22138H   25334.58777299  .00000070  00000+0  14259-3 0  9999
2 54120  87.9208 344.4587 0002067  94.4656 265.6713 13.19723764150630
ONEWEB-0503             
1 54121U 22138J   25334.42507485 -.00000051  00000+0 -15895-3 0  9999
2 54121  87.9209 344.4952 0001792 100.3408 259.7926 13.19723152150602
ONEWEB-0504             
1 54122U 22138K   25334.48824988 -.00000026  00000+0 -97927-4 0  9995
2 54122  87.9204 344.4993 0002077  95.9664 264.1706 13.19727807150622
ONEWEB-0505             
1 54123U 22138L   25334.48509841 -.00000034  00000+0 -11641-3 0  9991
2 54123  87.9209 344.4893 0002334  93.0641 267.0759 13.19723709150602
ONEWEB-0506             
1 54124U 22138M   25334.53564634  .00000043  00000+0  74492-4 0  9991
2 54124  87.9211 344.4762 0001967  91.9995 268.1363 13.19724121150603
ONEWEB-0507             
1 54125U 22138N   25334.55617732  .00000022  00000+0  23235-4 0  9998
2 54125  87.9189 344.5094 0002035  89.7243 270.4123 13.19723588150656
ONEWEB-0508             
1 54126U 22138P   25334.55302646  .00000051  00000+0  95080-4 0  9993
2 54126  87.9201 344.5027 0002154  87.7504 272.3876 13.19723936150639
ONEWEB-0509             
1 54127U 22138Q   25334.60355816  .00000095  00000+0  20542-3 0  9995
2 54127  87.9213 344.4618 0001954  90.7514 269.3843 13.19722684150617
ONEWEB-0510             
1 54128U 22138R   25334.42141780  .00000137  00000+0  30574-3 0  9992
2 54128  87.9183 314.0760 0001285  86.0578 274.0702 13.20773812153048
ONEWEB-0511             
1 54129U 22138S   25334.60040895  .00000081  00000+0  16937-3 0  9993
2 54129  87.9215 344.4657 0001873  99.8528 260.2816 13.19723592150641
